[{"OBJECT_NAME":"HULIANWANG DIGUI-147","OBJECT_ID":"2026-013B","EPOCH":"2026-03-09T18:17:01.201344","MEAN_MOTION":13.45208806,"ECCENTRICITY":0.00021169,"INCLINATION":50.0219,"RA_OF_ASC_NODE":353.0049,"ARG_OF_PERICENTER":22.4343,"MEAN_ANOMALY":337.6628,"EPHEMERIS_TYPE":0,"CLASSIFICATION_TYPE":"U","NORAD_CAT_ID":67523,"ELEMENT_SET_NO":999,"REV_AT_EPOCH":681,"BSTAR":0.00012576751,"MEAN_MOTION_DOT":-5.5e-7,"MEAN_MOTION_DDOT":0},{"OBJECT_NAME":"THOR ABLESTAR R\/B","OBJECT_ID":"1962-060B","EPOCH":"2026-03-09T15:46:48.356832","MEAN_MOTION":13.39168914,"ECCENTRICITY":0.00657707,"INCLINATION":50.1297,"RA_OF_ASC_NODE":162.7685,"ARG_OF_PERICENTER":240.9327,"MEAN_ANOMALY":271.3374,"EPHEMERIS_TYPE":0,"CLASSIFICATION_TYPE":"U","NORAD_CAT_ID":447,"ELEMENT_SET_NO":999,"REV_AT_EPOCH":9873,"BSTAR":7.8248874e-5,"MEAN_MOTION_DOT":-8.4e-7,"MEAN_MOTION_DDOT":0}]
